COSMO-SKYMED 4          
1 37216U 10060A   26141.91211272  .00000019  00000+0  89124-5 0  9993
2 37216  97.8885 325.8928 0001367  85.2442 274.8927 14.82158252840677
RESOURCESAT-2           
1 37387U 11015A   26141.90667176  .00000054  00000+0  44848-4 0  9992
2 37387  98.7651 209.5282 0010685 338.8471  21.2263 14.21605959782441
HAIYANG-2A              
1 37781U 11043A   26141.98172187 -.00000126  00000+0 -85857-4 0  9999
2 37781  99.3400 145.2266 0006699 138.6183 221.5475 13.75012515743054
RASAT                   
1 37791U 11044D   26141.94344520  .00000000  00000+0  85151-5 0  9996
2 37791  98.0561 233.7417 0019179 276.4421 172.3042 14.68136255789338
SRMSAT                  
1 37841U 11058D   26141.58428440  .00000353  00000+0  47856-4 0  9991
2 37841  19.9710 220.4956 0011598 271.8763 219.5780 14.11569257754052
PLEIADES 1A             
1 38012U 11076F   26142.00048817 -.00000065  00000+0 -41777-5 0  9995
2 38012  98.1973 217.4534 0001222 103.7451  20.7304 14.58550744768175
ZIYUAN 1-02C (ZY 1-02C) 
1 38038U 11079A   26141.99938865  .00000133  00000+0  58040-4 0  9998
2 38038  98.4074 209.8536 0007108  36.1915  93.4596 14.38189968755448
ARIRANG-3 (KOMPSAT-3)   
1 38338U 12025B   26141.96041900  .00000279  00000+0  64707-4 0  9993
2 38338  98.1157  99.8762 0005068 182.1777 177.9403 14.62179566747513
EXACTVIEW-1 (ADS-1B)    
1 38709U 12039C   26141.90984250  .00000082  00000+0  54802-4 0  9995
2 38709  98.9746 258.7108 0009919 244.6161 115.3990 14.24975700718963
SPOT 6                  
1 38755U 12047A   26141.92339074  .00000090  00000+0  29184-4 0  9999
2 38755  98.2121 209.5372 0001257  95.6122 264.5221 14.58544057729228
PLEIADES 1B             
1 39019U 12068A   26141.94225274  .00000145  00000+0  40955-4 0  9994
2 39019  98.1944 217.3541 0001330 103.3170 256.8177 14.58541095717029
GOKTURK 2               
1 39030U 12073A   26141.90471617  .00000361  00000+0  59946-4 0  9993
2 39030  97.6831 340.6522 0002188  78.6594 281.4862 14.75513005720631
