
    {
        "ARG_OF_PERICENTER": 85.2442,
        "BSTAR": 8.912428e-06,
        "CLASSIFICATION_TYPE": "U",
        "ECCENTRICITY": 0.00013679,
        "ELEMENT_SET_NO": 999,
        "EPHEMERIS_TYPE": 0,
        "EPOCH": "2026-05-21T21:53:26.539008",
        "INCLINATION": 97.8885,
        "MEAN_ANOMALY": 274.8927,
        "MEAN_MOTION": 14.82158252,
        "MEAN_MOTION_DDOT": 0,
        "MEAN_MOTION_DOT": 1.9e-07,
        "NORAD_CAT_ID": 37216,
        "OBJECT_ID": "2010-060A",
        "OBJECT_NAME": "COSMO-SKYMED 4",
        "RA_OF_ASC_NODE": 325.8928,
        "REV_AT_EPOCH": 84067
    },
    {
        "ARG_OF_PERICENTER": 338.8471,
        "BSTAR": 4.4848303e-05,
        "CLASSIFICATION_TYPE": "U",
        "ECCENTRICITY": 0.00106855,
        "ELEMENT_SET_NO": 999,
        "EPHEMERIS_TYPE": 0,
        "EPOCH": "2026-05-21T21:45:36.440064",
        "INCLINATION": 98.7651,
        "MEAN_ANOMALY": 21.2263,
        "MEAN_MOTION": 14.21605959,
        "MEAN_MOTION_DDOT": 0,
        "MEAN_MOTION_DOT": 5.4e-07,
        "NORAD_CAT_ID": 37387,
        "OBJECT_ID": "2011-015A",
        "OBJECT_NAME": "RESOURCESAT-2",
        "RA_OF_ASC_NODE": 209.5282,
        "REV_AT_EPOCH": 78244
    },
    {
        "ARG_OF_PERICENTER": 138.6183,
        "BSTAR": -8.5856614e-05,
        "CLASSIFICATION_TYPE": "U",
        "ECCENTRICITY": 0.00066993,
        "ELEMENT_SET_NO": 999,
        "EPHEMERIS_TYPE": 0,
        "EPOCH": "2026-05-21T23:33:40.769568",
        "INCLINATION": 99.34,
        "MEAN_ANOMALY": 221.5475,
        "MEAN_MOTION": 13.75012515,
        "MEAN_MOTION_DDOT": 0,
        "MEAN_MOTION_DOT": -1.26e-06,
        "NORAD_CAT_ID": 37781,
        "OBJECT_ID": "2011-043A",
        "OBJECT_NAME": "HAIYANG-2A",
        "RA_OF_ASC_NODE": 145.2266,
        "REV_AT_EPOCH": 74305
    },
    {
        "ARG_OF_PERICENTER": 276.4421,
        "BSTAR": 8.515071e-06,
        "CLASSIFICATION_TYPE": "U",
        "ECCENTRICITY": 0.00191794,
        "ELEMENT_SET_NO": 999,
        "EPHEMERIS_TYPE": 0,
        "EPOCH": "2026-05-21T22:38:33.665280",
        "INCLINATION": 98.0561,
        "MEAN_ANOMALY": 172.3042,
        "MEAN_MOTION": 14.68136255,
        "MEAN_MOTION_DDOT": 0,
        "MEAN_MOTION_DOT": 0,
        "NORAD_CAT_ID": 37791,
        "OBJECT_ID": "2011-044D",
        "OBJECT_NAME": "RASAT",
        "RA_OF_ASC_NODE": 233.7417,
        "REV_AT_EPOCH": 78933
    },
    {
        "ARG_OF_PERICENTER": 271.8763,
        "BSTAR": 4.7856e-05,
        "CLASSIFICATION_TYPE": "U",
        "ECCENTRICITY": 0.0011598,
        "ELEMENT_SET_NO": 999,
        "EPHEMERIS_TYPE": 0,
        "EPOCH": "2026-05-21T14:01:22.172160",
        "INCLINATION": 19.971,
        "MEAN_ANOMALY": 219.578,
        "MEAN_MOTION": 14.11569257,
        "MEAN_MOTION_DDOT": 0,
        "MEAN_MOTION_DOT": 3.53e-06,
        "NORAD_CAT_ID": 37841,
        "OBJECT_ID": "2011-058D",
        "OBJECT_NAME": "SRMSAT",
        "RA_OF_ASC_NODE": 220.4956,
        "REV_AT_EPOCH": 75405
    },
    {
        "ARG_OF_PERICENTER": 103.7451,
        "BSTAR": -4.177746e-06,
        "CLASSIFICATION_TYPE": "U",
        "ECCENTRICITY": 0.00012225,
        "ELEMENT_SET_NO": 999,
        "EPHEMERIS_TYPE": 0,
        "EPOCH": "2026-05-22T00:00:42.177888",
        "INCLINATION": 98.1973,
        "MEAN_ANOMALY": 20.7304,
        "MEAN_MOTION": 14.58550744,
        "MEAN_MOTION_DDOT": 0,
        "MEAN_MOTION_DOT": -6.5e-07,
        "NORAD_CAT_ID": 38012,
        "OBJECT_ID": "2011-076F",
        "OBJECT_NAME": "PLEIADES 1A",
        "RA_OF_ASC_NODE": 217.4534,
        "REV_AT_EPOCH": 76817
    },
    {
        "ARG_OF_PERICENTER": 36.1915,
        "BSTAR": 5.8040329e-05,
        "CLASSIFICATION_TYPE": "U",
        "ECCENTRICITY": 0.00071082,
        "ELEMENT_SET_NO": 999,
        "EPHEMERIS_TYPE": 0,
        "EPOCH": "2026-05-21T23:59:07.179360",
        "INCLINATION": 98.4074,
        "MEAN_ANOMALY": 93.4596,
        "MEAN_MOTION": 14.38189968,
        "MEAN_MOTION_DDOT": 0,
        "MEAN_MOTION_DOT": 1.33e-06,
        "NORAD_CAT_ID": 38038,
        "OBJECT_ID": "2011-079A",
        "OBJECT_NAME": "ZIYUAN 1-02C (ZY 1-02C)",
        "RA_OF_ASC_NODE": 209.8536,
        "REV_AT_EPOCH": 75544
    },
    {
        "ARG_OF_PERICENTER": 182.1777,
        "BSTAR": 6.4707128e-05,
        "CLASSIFICATION_TYPE": "U",
        "ECCENTRICITY": 0.00050689,
        "ELEMENT_SET_NO": 999,
        "EPHEMERIS_TYPE": 0,
        "EPOCH": "2026-05-21T23:03:00.201600",
        "INCLINATION": 98.1157,
        "MEAN_ANOMALY": 177.9403,
        "MEAN_MOTION": 14.62179566,
        "MEAN_MOTION_DDOT": 0,
        "MEAN_MOTION_DOT": 2.79e-06,
        "NORAD_CAT_ID": 38338,
        "OBJECT_ID": "2012-025B",
        "OBJECT_NAME": "ARIRANG-3 (KOMPSAT-3)",
        "RA_OF_ASC_NODE": 99.8762,
        "REV_AT_EPOCH": 74751
    },
    {
        "ARG_OF_PERICENTER": 244.6161,
        "BSTAR": 5.4801862e-05,
        "CLASSIFICATION_TYPE": "U",
        "ECCENTRICITY": 0.00099198,
        "ELEMENT_SET_NO": 999,
        "EPHEMERIS_TYPE": 0,
        "EPOCH": "2026-05-21T21:50:10.392000",
        "INCLINATION": 98.9746,
        "MEAN_ANOMALY": 115.399,
        "MEAN_MOTION": 14.249757,
        "MEAN_MOTION_DDOT": 0,
        "MEAN_MOTION_DOT": 8.2e-07,
        "NORAD_CAT_ID": 38709,
        "OBJECT_ID": "2012-039C",
        "OBJECT_NAME": "EXACTVIEW-1 (ADS-1B)",
        "RA_OF_ASC_NODE": 258.7108,
        "REV_AT_EPOCH": 71896
    },
    {
        "ARG_OF_PERICENTER": 95.6122,
        "BSTAR": 2.918427e-05,
        "CLASSIFICATION_TYPE": "U",
        "ECCENTRICITY": 0.00012579,
        "ELEMENT_SET_NO": 999,
        "EPHEMERIS_TYPE": 0,
        "EPOCH": "2026-05-21T22:09:40.959936",
        "INCLINATION": 98.2121,
        "MEAN_ANOMALY": 264.5221,
        "MEAN_MOTION": 14.58544057,
        "MEAN_MOTION_DDOT": 0,
        "MEAN_MOTION_DOT": 9e-07,
        "NORAD_CAT_ID": 38755,
        "OBJECT_ID": "2012-047A",
        "OBJECT_NAME": "SPOT 6",
        "RA_OF_ASC_NODE": 209.5372,
        "REV_AT_EPOCH": 72922
    },
    {
        "ARG_OF_PERICENTER": 103.317,
        "BSTAR": 4.0955121e-05,
        "CLASSIFICATION_TYPE": "U",
        "ECCENTRICITY": 0.00013302,
        "ELEMENT_SET_NO": 999,
        "EPHEMERIS_TYPE": 0,
        "EPOCH": "2026-05-21T22:36:50.636736",
        "INCLINATION": 98.1944,
        "MEAN_ANOMALY": 256.8177,
        "MEAN_MOTION": 14.58541095,
        "MEAN_MOTION_DDOT": 0,
        "MEAN_MOTION_DOT": 1.45e-06,
        "NORAD_CAT_ID": 39019,
        "OBJECT_ID": "2012-068A",
        "OBJECT_NAME": "PLEIADES 1B",
        "RA_OF_ASC_NODE": 217.3541,
        "REV_AT_EPOCH": 71702
    },
    {
        "ARG_OF_PERICENTER": 78.6594,
        "BSTAR": 5.9946027e-05,
        "CLASSIFICATION_TYPE": "U",
        "ECCENTRICITY": 0.00021883,
        "ELEMENT_SET_NO": 999,
        "EPHEMERIS_TYPE": 0,
        "EPOCH": "2026-05-21T21:42:47.477088",
        "INCLINATION": 97.6831,
        "MEAN_ANOMALY": 281.4862,
        "MEAN_MOTION": 14.75513005,
        "MEAN_MOTION_DDOT": 0,
        "MEAN_MOTION_DOT": 3.61e-06,
        "NORAD_CAT_ID": 39030,
        "OBJECT_ID": "2012-073A",
        "OBJECT_NAME": "GOKTURK 2",
        "RA_OF_ASC_NODE": 340.6522,
        "REV_AT_EPOCH": 72063
    }